ONEWEB-0306             
1 49188U 21083C   23225.31904073 -.00000013  00000+0 -65638-4 0  9992
2 49188  87.9286 182.0449 0001784  75.8622 284.2708 13.18688016 94387
ONEWEB-0307             
1 49189U 21083D   23225.09713261 -.00000561  00000+0 -15725-2 0  9993
2 49189  87.9085 166.9247 0002065  80.6062 279.5300 13.13468878 95818
ONEWEB-0320             
1 49190U 21083E   23225.32534732 -.00000033  00000+0 -11748-3 0  9991
2 49190  87.9286 182.0657 0002140  84.3317 275.8059 13.18684742 94347
ONEWEB-0321             
1 49191U 21083F   23226.10614931  .00000110  00000+0  23904-3 0  9990
2 49191  87.9229 121.1342 0001694  88.5378 271.5950 13.20775025101087
ONEWEB-0322             
1 49192U 21083G   23225.77850845 -.00000077  00000+0 -24570-3 0  9993
2 49192  87.9091 166.7800 0002423  93.8091 266.3315 13.13470661 95899
ONEWEB-0324             
1 49193U 21083H   23226.14525795  .00000037  00000+0  60120-4 0  9995
2 49193  87.9287 181.8847 0002146  70.0077 290.1287 13.18686743 94470
ONEWEB-0325             
1 49194U 21083J   23226.14946917  .00000043  00000+0  75595-4 0  9998
2 49194  87.9267 181.7565 0002001  81.6918 278.4441 13.18680476 94486
ONEWEB-0326             
1 49195U 21083K   23225.32956292 -.00000185  00000+0 -50223-3 0  9994
2 49195  87.9288 182.0351 0002223  65.0690 295.0673 13.18684969 94366
